OBJECT_NAME,OBJECT_ID,EPOCH,MEAN_MOTION,ECCENTRICITY,INCLINATION,RA_OF_ASC_NODE,ARG_OF_PERICENTER,MEAN_ANOMALY,EPHEMERIS_TYPE,CLASSIFICATION_TYPE,NORAD_CAT_ID,ELEMENT_SET_NO,REV_AT_EPOCH,BSTAR,MEAN_MOTION_DOT,MEAN_MOTION_DDOT
OMNI-L1,2022-033A,2026-07-12T18:06:14.937120,14.82840102,.0005115,97.8392,272.4356,185.3262,174.7898,0,U,52157,999,23124,.13366E-3,.103E-4,0
ENMAP,2022-033C,2026-07-12T19:24:41.544288,14.74940772,.0001336,97.9793,275.6941,78.1603,281.9756,0,U,52159,999,23043,.73729E-4,.445E-5,0
ARCSAT-1,2022-033E,2026-07-12T19:39:56.505600,15.54247584,.0006296,97.2761,286.4836,103.6551,256.5404,0,U,52161,999,23968,.15172E-3,.9804E-4,0
GLOBAL-18,2022-034B,2026-07-12T06:16:14.616192,15.47134177,.0004322,52.9800,136.7234,16.8415,343.2733,0,U,52196,999,24084,.26841E-3,.13426E-3,0
GAOFEN-3 03,2022-035A,2026-07-12T19:55:24.470976,14.42217480,.0001757,98.4066,202.0380,89.7926,270.3465,0,U,52200,999,22454,-.24493E-4,-.124E-5,0
DAQI-1,2022-039A,2026-07-12T21:16:21.128160,14.57691730,.0003773,98.1478,132.2076,153.8715,206.2675,0,U,52257,999,22568,.16526E-4,.3E-6,0
BRO-6,2022-047AE,2026-07-12T19:23:14.885952,15.52435053,.0002907,97.3397,285.3874,324.4847,35.6212,0,U,52422,999,23512,.53084E-3,.32426E-3,0
JILIN-1 GAOFEN 3D27,2022-048B,2026-07-12T18:19:01.115040,15.82433629,.0005085,97.5731,310.1552,251.3604,108.7112,0,U,52444,999,23351,.72256E-3,.151682E-2,0
JILIN-1 GAOFEN 3D28,2022-048C,2026-07-12T16:49:54.287328,15.87213430,.0004854,97.5669,310.3705,248.1485,111.9270,0,U,52445,999,23356,.7437E-3,.196959E-2,0
VIGORIDE-3,2022-057AE,2026-07-12T19:57:58.442688,15.27535711,.000907,97.6632,334.4944,42.2535,317.9401,0,U,52760,999,22907,.12661E-3,.3334E-4,0
ION SCV-006,2022-057AF,2026-07-12T09:56:57.557184,15.45878197,.00170414,97.6120,343.2609,27.3206,332.8935,0,U,52761,999,23001,.15635535E-3,.7538E-4,0
SHERPA-AC1,2022-057AH,2026-07-12T20:34:36.971040,15.36611744,.000742,97.6710,344.1639,12.0699,348.0721,0,U,52763,999,22964,.13513E-3,.4745E-4,0
OMNI-L2,2022-057AR,2026-07-12T17:19:54.562656,14.81434364,.000548,97.4704,254.3638,230.1208,129.9524,0,U,52771,999,22417,.89114E-4,.65E-5,0
STEP CUBE LAB-II,2022-065D,2026-07-12T20:18:25.817760,14.63341248,.0007532,98.2252,337.6738,311.3318,48.7235,0,U,52897,999,21525,.95773E-4,.446E-5,0
RANDEV,2022-065E,2026-07-12T20:10:11.783424,14.63730187,.0006866,98.2240,338.0309,312.0553,48.0065,0,U,52898,999,21500,.10825E-3,.516E-5,0
SNUGLITE-II,2022-065F,2026-07-11T15:06:40.003488,14.64390506,.00063995,98.2230,337.4211,313.7213,46.3459,0,U,52899,999,21457,.99611367E-4,.478E-5,0
MIMAN,2022-065G,2026-07-12T20:27:53.902080,14.61870408,.0006524,98.2292,336.2104,312.2808,47.7839,0,U,52900,999,21419,.62648E-4,.266E-5,0
STARLINK-4362,2022-077A,2026-07-12T10:52:48.544032,15.05657547,.0001236,97.2838,11.0550,94.8537,265.2832,0,U,53043,999,21968,.27082927E-4,.335E-5,0
LARES-2,2022-080A,2026-07-11T06:32:52.952640,6.38965058,.00051703,70.1562,297.0691,331.4390,28.5953,0,U,53105,999,9320,0,-.16E-6,0
GREENCUBE (IO-117),2022-080E,2026-07-12T17:00:29.176992,6.42583319,.000903,70.1415,289.3709,284.1311,75.8345,0,U,53109,999,9370,0,-.3E-7,0
STARLINK-4410,2022-084R,2026-07-12T20:00:01.999008,15.45572281,.0002415,97.6013,255.8119,105.6683,139.3244,0,U,53204,999,589,-.33252E-1,-.1450394E-1,0
COSMOS 2558,2022-089A,2026-07-12T18:22:02.988768,15.81158182,.0003786,97.2243,298.9801,232.1541,127.9385,0,U,53323,999,22186,.62043E-3,.122319E-2,0
TECMS,2022-090A,2026-07-12T21:00:20.527776,15.21224648,.0005564,97.3131,261.2560,91.0333,269.1541,0,U,53346,999,21871,.10353E-3,.2244E-4,0
DONGPO 02,2022-098J,2026-07-12T19:19:45.895584,15.80623395,.0004509,97.5550,327.3360,221.7836,138.3087,0,U,53452,999,21883,.6511E-3,.125347E-2,0
DONGPO 01,2022-098K,2026-07-12T20:05:03.058080,15.77682325,.0002862,97.5607,327.8176,210.8864,149.2234,0,U,53453,999,21879,.65153E-3,.109663E-2,0
STARLINK-4400,2022-099D,2026-07-12T18:21:24.773184,15.05655209,.0001691,97.2840,311.4306,122.4594,237.6797,0,U,53468,999,21479,.11131E-4,.104E-5,0
STARLINK-4621,2022-105AE,2026-07-12T13:38:18.541824,15.05656300,.0001693,97.2834,71.2607,93.1582,266.9839,0,U,53676,999,21202,.24194E-4,.293E-5,0
SHERPA-LTC2,2022-107BG,2026-07-12T05:02:38.512608,14.69903594,.0392794,53.2371,114.3885,296.3432,59.7708,0,U,53754,999,20622,.12194E-3,.2144E-4,0
CENTISPACE-1 S3,2022-108A,2026-07-12T18:56:05.680032,14.61281775,.0010695,53.5339,309.3926,59.0952,301.1073,0,U,53757,999,20527,.67564E-4,.146E-5,0
CENTISPACE-1 S4,2022-108B,2026-07-12T19:54:37.738944,14.61970440,.0009965,53.5314,306.6202,48.6335,311.5496,0,U,53758,999,20531,.84611E-4,.237E-5,0
