OMNI-L1                 
1 52157U 22033A   26193.75433955  .00001030  00000+0  13366-3 0  9997
2 52157  97.8392 272.4356 0005115 185.3262 174.7898 14.82840102231244
ENMAP                   
1 52159U 22033C   26193.80881417  .00000445  00000+0  73729-4 0  9994
2 52159  97.9793 275.6941 0001336  78.1603 281.9756 14.74940772230435
ARCSAT-1                
1 52161U 22033E   26193.81940400  .00009804  00000+0  15172-3 0  9991
2 52161  97.2761 286.4836 0006296 103.6551 256.5404 15.54247584239689
GLOBAL-18               
1 52196U 22034B   26193.26128028  .00013426  00000+0  26841-3 0  9993
2 52196  52.9800 136.7234 0004322  16.8415 343.2733 15.47134177240844
GAOFEN-3 03             
1 52200U 22035A   26193.83014434 -.00000124  00000+0 -24493-4 0  9993
2 52200  98.4066 202.0380 0001757  89.7926 270.3465 14.42217480224547
DAQI-1                  
1 52257U 22039A   26193.88635565  .00000030  00000+0  16526-4 0  9990
2 52257  98.1478 132.2076 0003773 153.8715 206.2675 14.57691730225685
BRO-6                   
1 52422U 22047AE  26193.80781118  .00032426  00000+0  53084-3 0  9994
2 52422  97.3397 285.3874 0002907 324.4847  35.6212 15.52435053235127
JILIN-1 GAOFEN 3D27     
1 52444U 22048B   26193.76320735  .00151682  00000+0  72256-3 0  9996
2 52444  97.5731 310.1552 0005085 251.3604 108.7112 15.82433629233516
JILIN-1 GAOFEN 3D28     
1 52445U 22048C   26193.70132277  .00196959  00000+0  74370-3 0  9998
2 52445  97.5669 310.3705 0004854 248.1485 111.9270 15.87213430233560
VIGORIDE-3              
1 52760U 22057AE  26193.83192642  .00003334  00000+0  12661-3 0  9993
2 52760  97.6632 334.4944 0009070  42.2535 317.9401 15.27535711229075
ION SCV-006             
1 52761U 22057AF  26193.41455506  .00007538  00000+0  15636-3 0  9994
2 52761  97.6120 343.2609 0017041  27.3206 332.8935 15.45878197230012
SHERPA-AC1              
1 52763U 22057AH  26193.85737235  .00004745  00000+0  13513-3 0  9995
2 52763  97.6710 344.1639 0007420  12.0699 348.0721 15.36611744229641
OMNI-L2                 
1 52771U 22057AR  26193.72215929  .00000650  00000+0  89114-4 0  9993
2 52771  97.4704 254.3638 0005480 230.1208 129.9524 14.81434364224175
STEP CUBE LAB-II        
1 52897U 22065D   26193.84613215  .00000446  00000+0  95773-4 0  9995
2 52897  98.2252 337.6738 0007532 311.3318  48.7235 14.63341248215255
RANDEV                  
1 52898U 22065E   26193.84041416  .00000516  00000+0  10825-3 0  9996
2 52898  98.2240 338.0309 0006866 312.0553  48.0065 14.63730187215001
SNUGLITE-II             
1 52899U 22065F   26192.62962967  .00000478  00000+0  99611-4 0  9993
2 52899  98.2230 337.4211 0006399 313.7213  46.3459 14.64390506214575
MIMAN                   
1 52900U 22065G   26193.85270720  .00000266  00000+0  62648-4 0  9996
2 52900  98.2292 336.2104 0006524 312.2808  47.7839 14.61870408214194
STARLINK-4362           
1 53043U 22077A   26193.45333963  .00000335  00000+0  27083-4 0  9994
2 53043  97.2838  11.0550 0001236  94.8537 265.2832 15.05657547219683
LARES-2                 
1 53105U 22080A   26192.27283510 -.00000016  00000+0  00000+0 0  9990
2 53105  70.1562 297.0691 0005170 331.4390  28.5953  6.38965058 93203
GREENCUBE (IO-117)      
1 53109U 22080E   26193.70867103 -.00000003  00000+0  00000+0 0  9995
2 53109  70.1415 289.3709 0009030 284.1311  75.8345  6.42583319 93700
STARLINK-4410           
1 53204U 22084R   26193.83335647 -.01450394  00000+0 -33252-1 0  9993
2 53204  97.6013 255.8119 0002415 105.6683 139.3244 15.45572281  5892
COSMOS 2558             
1 53323U 22089A   26193.76531237  .00122319  00000+0  62043-3 0  9997
2 53323  97.2243 298.9801 0003786 232.1541 127.9385 15.81158182221868
TECMS                   
1 53346U 22090A   26193.87523759  .00002244  00000+0  10353-3 0  9997
2 53346  97.3131 261.2560 0005564  91.0333 269.1541 15.21224648218710
DONGPO 02               
1 53452U 22098J   26193.80539231  .00125347  00000+0  65110-3 0  9999
2 53452  97.5550 327.3360 0004509 221.7836 138.3087 15.80623395218837
DONGPO 01               
1 53453U 22098K   26193.83684095  .00109663  00000+0  65153-3 0  9992
2 53453  97.5607 327.8176 0002862 210.8864 149.2234 15.77682325218795
STARLINK-4400           
1 53468U 22099D   26193.76487006  .00000104  00000+0  11131-4 0  9992
2 53468  97.2840 311.4306 0001691 122.4594 237.6797 15.05655209214792
STARLINK-4621           
1 53676U 22105AE  26193.56827016  .00000293  00000+0  24194-4 0  9990
2 53676  97.2834  71.2607 0001693  93.1582 266.9839 15.05656300212023
SHERPA-LTC2             
1 53754U 22107BG  26193.21016797  .00002144  00000+0  12194-3 0  9990
2 53754  53.2371 114.3885 0392794 296.3432  59.7708 14.69903594206228
CENTISPACE-1 S3         
1 53757U 22108A   26193.78895463  .00000146  00000+0  67564-4 0  9993
2 53757  53.5339 309.3926 0010695  59.0952 301.1073 14.61281775205273
CENTISPACE-1 S4         
1 53758U 22108B   26193.82960346  .00000237  00000+0  84611-4 0  9995
2 53758  53.5314 306.6202 0009965  48.6335 311.5496 14.61970440205314
